[{"OBJECT_NAME":"STARLINK-1300","OBJECT_ID":"2020-019Q","EPOCH":"2026-03-10T00:00:02.999808","MEAN_MOTION":15.2932329,"ECCENTRICITY":9.061e-5,"INCLINATION":53.155,"RA_OF_ASC_NODE":163.7958,"ARG_OF_PERICENTER":78.2893,"MEAN_ANOMALY":201.7903,"EPHEMERIS_TYPE":0,"CLASSIFICATION_TYPE":"U","NORAD_CAT_ID":45374,"ELEMENT_SET_NO":999,"REV_AT_EPOCH":569,"BSTAR":0.00056718198,"MEAN_MOTION_DOT":0.0001603,"MEAN_MOTION_DDOT":0},{"OBJECT_NAME":"COSMOS 1220 DEB","OBJECT_ID":"1980-089CJ","EPOCH":"2026-03-09T07:43:28.093152","MEAN_MOTION":15.40496181,"ECCENTRICITY":0.00585687,"INCLINATION":64.9701,"RA_OF_ASC_NODE":55.6717,"ARG_OF_PERICENTER":278.4574,"MEAN_ANOMALY":80.9929,"EPHEMERIS_TYPE":0,"CLASSIFICATION_TYPE":"U","NORAD_CAT_ID":25795,"ELEMENT_SET_NO":999,"REV_AT_EPOCH":55668,"BSTAR":0.00051020882,"MEAN_MOTION_DOT":0.00021921,"MEAN_MOTION_DDOT":0}]
